STARLINK-2022           
1 47643U 21012Z   24031.65427072  .00003213  00000+0  23451-3 0  9999
2 47643  53.0529 259.4647 0001521  98.1297 261.9865 15.06400496164500
